{"type": "FeatureCollection", "features": [ {"type": "Feature", "properties": {"norad_id": 57401, "name": "TIANMU-1 09", "group": "weather", "lat": -33.82306155700629, "lon": 33.07461943093445, "alt_km": 491.8489928776253, "timestamp": "2025-12-04T19:33:59.278503+00:00", "meta": {"OBJECT_NAME": "TIANMU-1 09", "OBJECT_ID": "2023-101C", "EPOCH": "2025-12-04T08:42:47.140704", "MEAN_MOTION": 15.27892035, "ECCENTRICITY": 0.00067578, "INCLINATION": 97.2837, "RA_OF_ASC_NODE": 27.7165, "ARG_OF_PERICENTER": 106.6798, "MEAN_ANOMALY": 253.5184, "EPHEMERIS_TYPE": 0, "CLASSIFICATION_TYPE": "U", "NORAD_CAT_ID": 57401, "ELEMENT_SET_NO": 999, "REV_AT_EPOCH": 13187, "BSTAR": 0.0006412872, "MEAN_MOTION_DOT": 0.00017421, "MEAN_MOTION_DDOT": 0}, "tle": {"line1": "1 57401U 23101C   25338.36304561  .00017421  00000+0  64129-3 0  9992", "line2": "2 57401  97.2837  27.7165 0006757 106.6798 253.5184 15.27892035131875"}}, "geometry": {"type": "Point", "coordinates": [33.07461943093445, -33.82306155700629]}}, {"type": "Feature", "properties": {"norad_id": 57402, "name": "TIANMU-1 10", "group": "weather", "lat": 41.240822270858246, "lon": -144.55474009501364, "alt_km": 473.9244635533478, "timestamp": "2025-12-04T19:33:59.278512+00:00", "meta": {"OBJECT_NAME": "TIANMU-1 10", "OBJECT_ID": "2023-101D", "EPOCH": "2025-12-04T07:57:40.747968", "MEAN_MOTION": 15.27881819, "ECCENTRICITY": 0.00085345, "INCLINATION": 97.2918, "RA_OF_ASC_NODE": 28.5267, "ARG_OF_PERICENTER": 107.7057, "MEAN_ANOMALY": 252.5116, "EPHEMERIS_TYPE": 0, "CLASSIFICATION_TYPE": "U", "NORAD_CAT_ID": 57402, "ELEMENT_SET_NO": 999, "REV_AT_EPOCH": 13186, "BSTAR": 0.00060860608, "MEAN_MOTION_DOT": 0.00016529, "MEAN_MOTION_DDOT": 0}, "tle": {"line1": "1 57402U 23101D   25338.33172162  .00016529  00000+0  60861-3 0  9997", "line2": "2 57402  97.2918  28.5267 0008534 107.7057 252.5116 15.27881819131864"}}, "geometry": {"type": "Point", "coordinates": [-144.55474009501364, 41.240822270858246]}}, {"type": "Feature", "properties": {"norad_id": 57490, "name": "FENGYUN 3F", "group": "weather", "lat": -55.37273182698836, "lon": -145.588878014114, "alt_km": 833.1524281748898, "timestamp": "2025-12-04T19:33:59.278521+00:00", "meta": {"OBJECT_NAME": "FENGYUN 3F", "OBJECT_ID": "2023-111A", "EPOCH": "2025-12-04T08:18:34.945056", "MEAN_MOTION": 14.1989025, "ECCENTRICITY": 6.844e-05, "INCLINATION": 98.7094, "RA_OF_ASC_NODE": 46.7748, "ARG_OF_PERICENTER": 88.5372, "MEAN_ANOMALY": 271.5883, "EPHEMERIS_TYPE": 0, "CLASSIFICATION_TYPE": "U", "NORAD_CAT_ID": 57490, "ELEMENT_SET_NO": 999, "REV_AT_EPOCH": 12121, "BSTAR": 0.00011911227, "MEAN_MOTION_DOT": 2.09e-06, "MEAN_MOTION_DDOT": 0}, "tle": {"line1": "1 57490U 23111A   25338.34623779  .00000209  00000+0  11911-3 0  9991", "line2": "2 57490  98.7094  46.7748 0000684  88.5372 271.5883 14.19890250121211"}}, "geometry": {"type": "Point", "coordinates": [-145.588878014114, -55.37273182698836]}}, {"type": "Feature", "properties": {"norad_id": 58584, "name": "ARKTIKA-M 2", "group": "weather", "lat": -30.79087335760242, "lon": 13.270792227523048, "alt_km": 3579.900612212222, "timestamp": "2025-12-04T19:33:59.278532+00:00", "meta": {"OBJECT_NAME": "ARKTIKA-M 2", "OBJECT_ID": "2023-198A", "EPOCH": "2025-12-03T08:34:19.284960", "MEAN_MOTION": 2.00605176, "ECCENTRICITY": 0.68642509, "INCLINATION": 63.2223, "RA_OF_ASC_NODE": 175.9121, "ARG_OF_PERICENTER": 268.1397, "MEAN_ANOMALY": 18.842, "EPHEMERIS_TYPE": 0, "CLASSIFICATION_TYPE": "U", "NORAD_CAT_ID": 58584, "ELEMENT_SET_NO": 999, "REV_AT_EPOCH": 1439, "BSTAR": 0, "MEAN_MOTION_DOT": 2.24e-06, "MEAN_MOTION_DDOT": 0}, "tle": {"line1": "1 58584U 23198A   25337.35716765  .00000224  00000+0  00000+0 0  9999", "line2": "2 58584  63.2223 175.9121 6864250 268.1397  18.8420  2.00605176 14390"}}, "geometry": {"type": "Point", "coordinates": [13.270792227523048, -30.79087335760242]}}, {"type": "Feature", "properties": {"norad_id": 58645, "name": "TIANMU-1 11", "group": "weather", "lat": 55.17253725208333, "lon": -12.128971953565069, "alt_km": 485.60812097700546, "timestamp": "2025-12-04T19:33:59.278542+00:00", "meta": {"OBJECT_NAME": "TIANMU-1 11", "OBJECT_ID": "2023-205A", "EPOCH": "2025-12-04T08:17:42.344736", "MEAN_MOTION": 15.24440474, "ECCENTRICITY": 0.00087173, "INCLINATION": 97.3607, "RA_OF_ASC_NODE": 358.1178, "ARG_OF_PERICENTER": 343.2291, "MEAN_ANOMALY": 16.8657, "EPHEMERIS_TYPE": 0, "CLASSIFICATION_TYPE": "U", "NORAD_CAT_ID": 58645, "ELEMENT_SET_NO": 999, "REV_AT_EPOCH": 10781, "BSTAR": 0.00056745496, "MEAN_MOTION_DOT": 0.00013882, "MEAN_MOTION_DDOT": 0}, "tle": {"line1": "1 58645U 23205A   25338.34562899  .00013882  00000+0  56745-3 0  9998", "line2": "2 58645  97.3607 358.1178 0008717 343.2291  16.8657 15.24440474107817"}}, "geometry": {"type": "Point", "coordinates": [-12.128971953565069, 55.17253725208333]}}, {"type": "Feature", "properties": {"norad_id": 58646, "name": "TIANMU-1 12", "group": "weather", "lat": -82.57006586892442, "lon": 80.74091903023088, "alt_km": 497.56393840893634, "timestamp": "2025-12-04T19:33:59.278551+00:00", "meta": {"OBJECT_NAME": "TIANMU-1 12", "OBJECT_ID": "2023-205B", "EPOCH": "2025-12-04T07:21:09.232704", "MEAN_MOTION": 15.24353683, "ECCENTRICITY": 0.00065553, "INCLINATION": 97.3595, "RA_OF_ASC_NODE": 357.8875, "ARG_OF_PERICENTER": 329.2294, "MEAN_ANOMALY": 30.8558, "EPHEMERIS_TYPE": 0, "CLASSIFICATION_TYPE": "U", "NORAD_CAT_ID": 58646, "ELEMENT_SET_NO": 999, "REV_AT_EPOCH": 10779, "BSTAR": 0.00056553263, "MEAN_MOTION_DOT": 0.00013793, "MEAN_MOTION_DDOT": 0}, "tle": {"line1": "1 58646U 23205B   25338.30635686  .00013793  00000+0  56553-3 0  9998", "line2": "2 58646  97.3595 357.8875 0006555 329.2294  30.8558 15.24353683107797"}}, "geometry": {"type": "Point", "coordinates": [80.74091903023088, -82.57006586892442]}}, {"type": "Feature", "properties": {"norad_id": 58647, "name": "TIANMU-1 13", "group": "weather", "lat": 81.74312206945613, "lon": -64.41505419463887, "alt_km": 488.68821450953965, "timestamp": "2025-12-04T19:33:59.278562+00:00", "meta": {"OBJECT_NAME": "TIANMU-1 13", "OBJECT_ID": "2023-205C", "EPOCH": "2025-12-04T08:09:40.938624", "MEAN_MOTION": 15.24361478, "ECCENTRICITY": 0.00063306, "INCLINATION": 97.3623, "RA_OF_ASC_NODE": 358.1179, "ARG_OF_PERICENTER": 305.0993, "MEAN_ANOMALY": 54.965, "EPHEMERIS_TYPE": 0, "CLASSIFICATION_TYPE": "U", "NORAD_CAT_ID": 58647, "ELEMENT_SET_NO": 999, "REV_AT_EPOCH": 10779, "BSTAR": 0.00061047306, "MEAN_MOTION_DOT": 0.000149, "MEAN_MOTION_DDOT": 0}, "tle": {"line1": "1 58647U 23205C   25338.34005716  .00014900  00000+0  61047-3 0  9993", "line2": "2 58647  97.3623 358.1179 0006330 305.0993  54.9650 15.24361478107791"}}, "geometry": {"type": "Point", "coordinates": [-64.41505419463887, 81.74312206945613]}}, {"type": "Feature", "properties": {"norad_id": 58648, "name": "TIANMU-1 14", "group": "weather", "lat": 2.1885553532423674, "lon": 178.22375344599564, "alt_km": 498.73450272393984, "timestamp": "2025-12-04T19:33:59.278572+00:00", "meta": {"OBJECT_NAME": "TIANMU-1 14", "OBJECT_ID": "2023-205D", "EPOCH": "2025-12-04T07:45:38.780928", "MEAN_MOTION": 15.24345839, "ECCENTRICITY": 0.00072264, "INCLINATION": 97.3556, "RA_OF_ASC_NODE": 357.4581, "ARG_OF_PERICENTER": 309.8405, "MEAN_ANOMALY": 50.2196, "EPHEMERIS_TYPE": 0, "CLASSIFICATION_TYPE": "U", "NORAD_CAT_ID": 58648, "ELEMENT_SET_NO": 999, "REV_AT_EPOCH": 10779, "BSTAR": 0.00058381571, "MEAN_MOTION_DOT": 0.0001424, "MEAN_MOTION_DDOT": 0}, "tle": {"line1": "1 58648U 23205D   25338.32336552  .00014240  00000+0  58382-3 0  9992", "line2": "2 58648  97.3556 357.4581 0007226 309.8405  50.2196 15.24345839107798"}}, "geometry": {"type": "Point", "coordinates": [178.22375344599564, 2.1885553532423674]}}, {"type": "Feature", "properties": {"norad_id": 58660, "name": "TIANMU-1 19", "group": "weather", "lat": -21.47544448393114, "lon": 92.81641791964118, "alt_km": 486.4820443991475, "timestamp": "2025-12-04T19:33:59.278580+00:00", "meta": {"OBJECT_NAME": "TIANMU-1 19", "OBJECT_ID": "2023-208A", "EPOCH": "2025-12-04T07:05:03.912288", "MEAN_MOTION": 15.27610503, "ECCENTRICITY": 0.0004078, "INCLINATION": 97.4396, "RA_OF_ASC_NODE": 89.3508, "ARG_OF_PERICENTER": 290.9314, "MEAN_ANOMALY": 69.1489, "EPHEMERIS_TYPE": 0, "CLASSIFICATION_TYPE": "U", "NORAD_CAT_ID": 58660, "ELEMENT_SET_NO": 999, "REV_AT_EPOCH": 10753, "BSTAR": 0.00072701648, "MEAN_MOTION_DOT": 0.00019586, "MEAN_MOTION_DDOT": 0}, "tle": {"line1": "1 58660U 23208A   25338.29518417  .00019586  00000+0  72702-3 0  9997", "line2": "2 58660  97.4396  89.3508 0004078 290.9314  69.1489 15.27610503107538"}}, "geometry": {"type": "Point", "coordinates": [92.81641791964118, -21.47544448393114]}}, {"type": "Feature", "properties": {"norad_id": 58661, "name": "TIANMU-1 20", "group": "weather", "lat": 18.521299749968797, "lon": 87.80264305118844, "alt_km": 478.91103027696226, "timestamp": "2025-12-04T19:33:59.278589+00:00", "meta": {"OBJECT_NAME": "TIANMU-1 20", "OBJECT_ID": "2023-208B", "EPOCH": "2025-12-04T06:55:05.428992", "MEAN_MOTION": 15.28802478, "ECCENTRICITY": 0.00064399, "INCLINATION": 97.4332, "RA_OF_ASC_NODE": 89.7832, "ARG_OF_PERICENTER": 301.3414, "MEAN_ANOMALY": 58.7195, "EPHEMERIS_TYPE": 0, "CLASSIFICATION_TYPE": "U", "NORAD_CAT_ID": 58661, "ELEMENT_SET_NO": 999, "REV_AT_EPOCH": 10760, "BSTAR": 0.00070020733, "MEAN_MOTION_DOT": 0.00019566, "MEAN_MOTION_DDOT": 0}, "tle": {"line1": "1 58661U 23208B   25338.28825728  .00019566  00000+0  70021-3 0  9993", "line2": "2 58661  97.4332  89.7832 0006439 301.3414  58.7195 15.28802478107605"}}, "geometry": {"type": "Point", "coordinates": [87.80264305118844, 18.521299749968797]}}]}